STARLINK-5028           
1 53886U 22119A   22286.91667824  .00000415  00000+0  73686-5 0  9992
2 53886  53.2173 159.2070 0001141  99.0127 199.8850 15.73203622  1307
STARLINK-5029           
1 53887U 22119B   22286.91667824  .00000299  00000+0  65528-5 0  9999
2 53887  53.2173 159.2027 0001546  84.0396 216.6464 15.73203688  1302
STARLINK-5034           
1 53888U 22119C   22286.91667824  .00000233  00000+0  60809-5 0  9995
2 53888  53.2173 159.2059 0001709 305.3873 354.1064 15.73203703  1300
STARLINK-5031           
1 53889U 22119D   22286.91667824  .00000230  00000+0  60560-5 0  9997
2 53889  53.2173 159.2039 0001651  64.6304 235.4594 15.73203717  1303
STARLINK-5050           
1 53890U 22119E   22287.25001157 -.00822284  00000+0 -40274-2 0  9998
2 53890  53.2185 156.3239 0008011 274.3743   6.4835 15.83479739  3487
STARLINK-5041           
1 53891U 22119F   22287.25001157 -.00223045  00000+0 -16235-2 0  9999
2 53891  53.2162 157.5602 0001028  89.7048 301.1939 15.73254808  3473
STARLINK-5046           
1 53892U 22119G   22287.25001157 -.00371618  00000+0 -27457-2 0  9998
2 53892  53.2171 157.5546 0002140  24.7329   9.1353 15.73333110  3466
STARLINK-5052           
1 53893U 22119H   22287.25001157 -.00349788  00000+0 -25748-2 0  9993
2 53893  53.2162 157.5556 0001306 142.9873 249.6224 15.73362394  3473
STARLINK-5043           
1 53894U 22119J   22287.25001157 -.00338804  00000+0 -24947-2 0  9991
2 53894  53.2162 157.5591 0001133  92.8036 298.6693 15.73324870  3476
STARLINK-5032           
1 53895U 22119K   22287.25001157 -.00184211  00000+0 -13328-2 0  9994
2 53895  53.2163 157.5551 0001181  86.9636 306.2597 15.73274013  3479
STARLINK-5037           
1 53896U 22119L   22287.25001157 -.00345754  00000+0 -25466-2 0  9992
2 53896  53.2167 157.5538 0003261 299.9354  94.5211 15.73325116  3474
STARLINK-5035           
1 53897U 22119M   22287.25001157 -.00138305  00000+0 -99552-3 0  9993
2 53897  53.2165 157.5580 0001365 137.7936 254.2537 15.73240939  3473
STARLINK-5044           
1 53898U 22119N   22287.25001157 -.00153405  00000+0 -11053-2 0  9991
2 53898  53.2166 157.5506 0001779  48.8644 347.3216 15.73268246  3479
STARLINK-5042           
1 53899U 22119P   22287.25001157 -.00356917  00000+0 -26342-2 0  9992
2 53899  53.2167 157.5515 0001463  48.9507 346.7133 15.73320743  3472
STARLINK-5045           
1 53900U 22119Q   22287.25001157 -.00066253  00000+0 -47028-3 0  9991
2 53900  53.2172 157.5474 0001831  40.4572 356.8832 15.73251510  3476
STARLINK-5024           
1 53901U 22119R   22287.25001157 -.00318577  00000+0 -23378-2 0  9992
2 53901  53.2167 157.5527 0000911 102.4063 292.5861 15.73346908  3476
STARLINK-5021           
1 53902U 22119S   22284.16667824  .00300409  00000+0  20742-2 0  9994
2 53902  53.2172 172.7910 0001093  89.3094 118.4046 15.73143355  1309
STARLINK-5022           
1 53903U 22119T   22287.25001157 -.00219986  00000+0 -15988-2 0  9996
2 53903  53.2166 157.5493 0001076  83.4839 313.3293 15.73280762  3477
STARLINK-4787           
1 53904U 22119U   22287.25001157 -.00103429  00000+0 -74017-3 0  9990
2 53904  53.2162 157.5450 0000934  81.7690 316.2051 15.73246256  3479
STARLINK-5003           
1 53905U 22119V   22287.25001157 -.00193912  00000+0 -14052-2 0  9999
2 53905  53.2164 157.5417 0001231  90.7028 309.0954 15.73267703  3473
STARLINK-5054           
1 53906U 22119W   22287.25001157 -.00336390  00000+0 -24741-2 0  9995
2 53906  53.2167 157.5390 0001871  29.2623  12.3129 15.73340833  3479
STARLINK-5063           
1 53907U 22119X   22287.25001157 -.00392620  00000+0 -29054-2 0  9996
2 53907  53.2167 157.5453 0001759  34.6635   3.9480 15.73358358  3475
STARLINK-5057           
1 53908U 22119Y   22287.33335648 -.00120450  00000+0 -86653-3 0  9990
2 53908  53.2172 157.1239 0001157  98.7448  55.7914 15.73189645  3484
STARLINK-4796           
1 53909U 22119Z   22287.25001157 -.00223802  00000+0 -16283-2 0  9993
2 53909  53.2163 157.5431 0001201  59.5547 339.6697 15.73266632  3471
STARLINK-5056           
1 53910U 22119AA  22287.25001157 -.00027648  00000+0 -19322-3 0  9993
2 53910  53.2164 157.5339 0000819  86.8693 317.0781 15.73201973  3471
STARLINK-5048           
1 53911U 22119AB  22287.25001157 -.00421465  00000+0 -31285-2 0  9990
2 53911  53.2166 157.5392 0000939  95.8443 305.1531 15.73372090  3479
STARLINK-5059           
1 53912U 22119AC  22287.25001157 -.00377941  00000+0 -27935-2 0  9997
2 53912  53.2169 157.5357 0001245  49.4664 353.9213 15.73346997  3470
STARLINK-5053           
1 53913U 22119AD  22287.25001157 -.00168875  00000+0 -12196-2 0  9995
2 53913  53.2167 157.5317 0000793  95.2520 309.8860 15.73268672  3473
STARLINK-5040           
1 53914U 22119AE  22287.25001157 -.00171561  00000+0 -12395-2 0  9993
2 53914  53.2168 157.5308 0001312  82.9364 322.8075 15.73266358  3474
STARLINK-5017           
1 53915U 22119AF  22287.25001157 -.00207483  00000+0 -15065-2 0  9994
2 53915  53.2167 157.5369 0001037  93.4410 309.3522 15.73264832  3476
STARLINK-5051           
1 53916U 22119AG  22287.25001157 -.00293038  00000+0 -21477-2 0  9990
2 53916  53.2193 157.4433 0001262 137.7254 319.0025 15.73300881  3476
STARLINK-5036           
1 53917U 22119AH  22287.25001157 -.00323727  00000+0 -23805-2 0  9997
2 53917  53.2168 157.5331 0001013  84.3588 320.2327 15.73313389  3474
STARLINK-5012           
1 53918U 22119AJ  22287.25001157 -.00343279  00000+0 -25238-2 0  9994
2 53918  53.2169 157.5281 0001032  95.2788 311.6131 15.73373529  3473
STARLINK-5023           
1 53919U 22119AK  22287.25001157 -.00322872  00000+0 -23739-2 0  9995
2 53919  53.2167 157.5265 0000811  72.8954 334.6737 15.73314796  3472
STARLINK-5025           
1 53920U 22119AL  22287.25001157  .00177127  00000+0  12457-2 0  9991
2 53920  53.2169 157.5162 0001259  87.9682 321.9740 15.73093213  3475
STARLINK-5005           
1 53921U 22119AM  22287.25001157  .00654034  22352-3  79029-3 0  9996
2 53921  53.2195 155.2419 0034312 119.3467 323.5300 16.06336797  3500
STARLINK-5002           
1 53922U 22119AN  22287.25001157 -.00332463  00000+0 -24448-2 0  9994
2 53922  53.2169 157.5214 0001167  94.1477 316.3708 15.73337162  3471
STARLINK-5004           
1 53923U 22119AP  22287.25001157 -.00346404  00000+0 -25549-2 0  9998
2 53923  53.2168 157.5239 0000909  78.7856 330.5984 15.73308996  3477
STARLINK-5001           
1 53924U 22119AQ  22287.25001157 -.00193431  00000+0 -14020-2 0  9991
2 53924  53.2168 157.5181 0001150  79.4881 332.8345 15.73261769  3471
STARLINK-5011           
1 53925U 22119AR  22287.25001157 -.01233877  00000+0 -95874-2 0  9998
2 53925  53.2166 157.5259 0000813  64.6168 343.8224 15.73625364  3478
STARLINK-5014           
1 53926U 22119AS  22287.25001157 -.00156226  00000+0 -11273-2 0  9991
2 53926  53.2168 157.5167 0001120 107.3752 305.5397 15.73245636  3471
STARLINK-5008           
1 53927U 22119AT  22287.25001157 -.00416968  00000+0 -30976-2 0  9995
2 53927  53.2168 157.5179 0000974  93.0676 318.7030 15.73340704  3479
STARLINK-5009           
1 53928U 22119AU  22287.25001157 -.00326818  00000+0 -24024-2 0  9997
2 53928  53.2167 157.5150 0001181  94.5643 318.9446 15.73329479  3478
STARLINK-5018           
1 53929U 22119AV  22287.33335648 -.00114338  00000+0 -82332-3 0  9991
2 53929  53.2170 157.1049 0001986  31.6561 131.8889 15.73141910  3486
STARLINK-5010           
1 53930U 22119AW  22287.25001157 -.00330645  00000+0 -24337-2 0  9990
2 53930  53.2170 157.5129 0001048  94.8912 319.8490 15.73310805  3477
STARLINK-5015           
1 53931U 22119AX  22287.25001157 -.00199302  00000+0 -14451-2 0  9990
2 53931  53.2164 157.5097 0001390  57.9609 357.9294 15.73270369  3473
STARLINK-4772           
1 53932U 22119AY  22287.25001157 -.00270804  00000+0 -19784-2 0  9992
2 53932  53.2168 157.5121 0001317  59.7128 355.5733 15.73310218  3471
STARLINK-4782           
1 53933U 22119AZ  22287.25001157 -.00421583  00000+0 -31304-2 0  9997
2 53933  53.2168 157.5129 0000891  99.4622 314.6578 15.73365057  3470
STARLINK-4775           
1 53934U 22119BA  22287.25001157 -.00332859  00000+0 -24496-2 0  9999
2 53934  53.2168 157.5083 0000787  81.3888 335.1168 15.73321956  3471
STARLINK-5000           
1 53935U 22119BB  22287.25001157 -.00187895  00000+0 -13624-2 0  9999
2 53935  53.2168 157.5070 0001215  95.0453 322.6806 15.73235086  3473
STARLINK-4791           
1 53936U 22119BC  22287.25001157 -.00265432  00000+0 -19415-2 0  9998
2 53936  53.2168 157.5076 0000962  97.8119 319.3268 15.73267773  3470
STARLINK-4765           
1 53937U 22119BD  22287.25001157 -.00294430  00000+0 -21564-2 0  9997
2 53937  53.2171 157.5048 0001599  43.8108  14.4567 15.73319511  3473
